AAUSAT 4                
1 41460U 16025E   23025.50916019  .00071963  00000+0  20010-2 0  9992
2 41460  98.1746 222.1423 0097119 199.2358 214.8895 15.31903628371761
AIST-2D (RS-48)         
1 41465U 16026B   23025.90950818  .00038960  00000+0  70420-3 0  9998
2 41465  97.0220 260.2915 0009946  46.8184 323.7612 15.49547833377871
NUSAT-1 (FRESCO)        
1 41557U 16033B   23025.84510603  .00042989  00000+0  96821-3 0  9994
2 41557  97.3874 130.0106 0009062 300.9784 177.8758 15.43116534371569
NUSAT-2 (BATATA)        
1 41558U 16033C   23025.80077972  .00045305  00000+0  96540-3 0  9991
2 41558  97.4136 136.9821 0008383 289.1519 190.6879 15.44755899371864
CARTOSAT-2C             
1 41599U 16040A   23025.77534892  .00007933  00000+0  37854-3 0  9997
2 41599  97.4585  88.0474 0013510 122.0153 358.4211 15.19258682365682
SATHYABAMASAT           
1 41600U 16040B   23025.64843784  .00055818  00000+0  11935-2 0  9995
2 41600  97.1871  78.7772 0008963  43.8784 316.3176 15.44598228367038
LAPAN-A3                
1 41603U 16040E   23025.80616323  .00003491  00000+0  15786-3 0  9992
2 41603  97.1822  57.9095 0014762  97.3256  17.6425 15.21457715365830
BIROS                   
1 41604U 16040F   23025.66805131  .00008972  00000+0  34461-3 0  9994
2 41604  97.1832  66.6221 0012717  69.9918 290.2690 15.26589640366335
SWAYAM                  
1 41607U 16040J   23025.66423249  .00045783  00000+0  10586-2 0  9995
2 41607  97.1830  76.5045 0009565  46.3774 313.8266 15.42308707366888
BEESAT-4                
1 41619U 16040W   23025.65320501  .00038307  00000+0  94576-3 0  9990
2 41619  97.1852  76.0633 0008363  43.9729 316.2182 15.40377621354803
3CAT-2                  
1 41732U 16051B   23025.78361009  .00036206  00000+0  88258-3 0  9996
2 41732  97.3909 314.6723 0008428 198.7272 215.2911 15.40777151359466
PRATHAM                 
1 41783U 16059A   23025.63685174  .00001086  00000+0  21618-3 0  9991
2 41783  97.8877  62.9875 0033053 189.4226 170.6361 14.63617752338127
ALSAT 1N                
1 41789U 16059G   23025.83252561  .00001601  00000+0  30561-3 0  9999
2 41789  97.8893  68.2600 0028278 169.8538 190.3223 14.65010776338421
LISHUI 1-01             
1 41845U 16066E   23025.87336778  .00272266  00000+0  12443-1 0  9991
2 41845  98.7203 183.6591 0112373  71.2285 290.1924 15.13946394329868
CARTOSAT-2D             
1 41948U 17008A   23025.78500482  .00007955  00000+0  38017-3 0  9995
2 41948  97.4368  87.4703 0005465 284.0339  76.0249 15.19269939329559
NAYIF-1 (EO-88)         
1 42017U 17008BX  23025.67972556  .00053385  00000+0  10849-2 0  9996
2 42017  97.2386  94.5829 0003539 154.4452 205.6973 15.46140071331258
ZHUHAI-1 02 (CAS-4B)    
1 42759U 17034B   23025.82934110  .00009324  00000+0  51267-3 0  9993
2 42759  43.0155 185.2467 0011685 262.8596 245.8796 15.14197492310030
ZHUHAI-1 01 (CAS-4A)    
1 42761U 17034D   23025.71458683  .00011540  00000+0  62875-3 0  9990
2 42761  43.0155 184.4999 0012096 264.3103 215.6423 15.14342387310028
UCLSAT                  
1 42765U 17036A   23025.62655208  .00030486  00000+0  83361-3 0  9991
2 42765  97.1679  66.8677 0006510 241.8001 118.2587 15.37297662311884
NIUSAT                  
1 42766U 17036B   23025.66713425  .00020491  00000+0  67509-3 0  9993
2 42766  97.1774  60.8497 0010304 252.2354 107.7764 15.31446226310748
CARTOSAT-2E             
1 42767U 17036C   23025.87737785  .00007453  00000+0  35599-3 0  9999
2 42767  97.4258  88.1005 0008235 334.3490  73.9396 15.19295054310135
LITUANICASAT-2          
1 42768U 17036D   23025.65427951  .00121869  00000+0  16798-2 0  9994
2 42768  97.1725  73.1801 0006326 210.4315 149.6574 15.56782353311515
AALTO-1                 
1 42775U 17036L   23025.61151762  .00016083  00000+0  56143-3 0  9992
2 42775  97.1723  60.2048 0009576 254.4313 105.5871 15.29625732310682
URSA MAIOR              
1 42776U 17036M   23025.81134213  .00018443  00000+0  62234-3 0  9997
2 42776  97.1734  61.4073 0009195 250.9486 109.0760 15.30704557310765
COMPASS 2               
1 42777U 17036N   23025.66629688  .00059586  00000+0  12571-2 0  9997
2 42777  97.1736  70.6490 0006363 221.4153 138.6614 15.44997932311281
MAX VALIER SAT          
1 42778U 17036P   23025.63788039  .00016985  00000+0  54911-3 0  9992
2 42778  97.1780  64.3639 0007928 251.0177 109.0206 15.32113910310853
PEGASUS                 
1 42784U 17036V   23025.65129491  .00028335  00000+0  81763-3 0  9999
2 42784  97.1712  65.8478 0007153 246.7902 113.2589 15.35627689311026
NUDTSAT                 
1 42787U 17036Y   23025.63680996  .00080273  00000+0  15500-2 0  9996
2 42787  97.1708  72.3494 0005606 222.3876 137.6938 15.47503841311266
SUCHAI                  
1 42788U 17036Z   23025.67820024  .00035665  00000+0  91017-3 0  9992
2 42788  97.1702  68.3258 0006295 237.2638 122.8002 15.39397203311251
SKCUBE                  
1 42789U 17036AA  23025.64204616  .00032072  00000+0  86835-3 0  9994
2 42789  97.1707  67.3874 0006467 240.2189 119.8413 15.37595075311118
VZLUSAT-1               
1 42790U 17036AB  23025.61858463  .00065603  00000+0  12927-2 0  9994
2 42790  97.1701  72.2152 0005056 223.0991 136.9864 15.46978967311408
ROBUSTA 1B              
1 42792U 17036AD  23025.68141523  .00035082  00000+0  91199-3 0  9992
2 42792  97.1697  68.2345 0005965 238.1749 121.8917 15.38835418311181
D-SAT                   
1 42794U 17036AF  23025.62969332  .00005356  00000+0  43954-3 0  9991
2 42794  97.4592  24.5475 0121864  61.1944 300.1449 14.93916949304630
NORSAT 2                
1 42828U 17042D   23025.82289174  .00005180  00000+0  48900-3 0  9998
2 42828  97.4046 234.6058 0013513 344.7310  15.3502 14.94080798301357
TECHNOSAT               
1 42829U 17042E   23025.85301716  .00003951  00000+0  38811-3 0  9993
2 42829  97.3971 231.7961 0013558 350.0385  10.0565 14.92619914301252
2017-042F               
1 42830U 17042F   23025.84751053  .00013288  00000+0  11294-2 0  9996
2 42830  97.4083 237.8389 0012343 333.0586  26.9995 14.97914704301539
FLYING LAPTOP           
1 42831U 17042G   23025.85029423  .00003129  00000+0  31021-3 0  9991
2 42831  97.3982 232.1352 0013426 349.8585  10.2357 14.92397639301256
CORVUS BC2              
1 42846U 17042X   23025.82752330  .00003032  00000+0  29140-3 0  9996
2 42846  97.3967 235.3120 0008848 340.3171  19.7707 14.93691253301468
CORVUS BC1              
1 42847U 17042Y   23025.82756642  .00003113  00000+0  29847-3 0  9991
2 42847  97.3967 235.6507 0008514 339.5663  20.5216 14.93777715301471
CZ-4C R/B               
1 43012U 17072C   23025.65900492  .00000637  00000+0  14003-3 0  9990
2 43012  98.6696  76.0081 0126863 358.1943   1.8779 14.56520190276209
RADFXSAT (FOX-1B)       
1 43017U 17073E   23025.66682082  .00006490  00000+0  47267-3 0  9990
2 43017  97.6504 275.7031 0241440 178.5892 181.6059 14.83582741280034
EAGLESAT 1              
1 43018U 17073F   23025.65837411  .00012107  00000+0  82639-3 0  9992
2 43018  97.6554 278.4983 0229600 169.4354 191.1809 14.87308196280079
INS-1C                  
1 43116U 18004F   23025.71683180  .00031947  00000+0  86411-3 0  9990
2 43116  97.3537 105.8388 0006114 282.5254  77.5307 15.37630229280382
FLOCK 3P'-3             
1 43119U 18004J   23025.66793462  .00057351  00000+0  16315-2 0  9994
2 43119  97.3491 102.6459 0007294 302.5575  57.4964 15.35912685280188
FLOCK 3P'-2             
1 43120U 18004K   23025.71286321  .00037962  00000+0  11642-2 0  9997
2 43120  97.3523 102.0855 0007248 305.9911  54.0659 15.33642651280141
FLOCK 3P'-1             
1 43121U 18004L   23025.69984274  .00135826  00000+0  18320-2 0  9995
2 43121  97.3586 112.0744 0005319 276.6706  83.3944 15.57324428280723
FLOCK 3P'-4             
1 43122U 18004M   23025.68644152  .00038330  00000+0  11664-2 0  9999
2 43122  97.3530 102.2806 0006719 309.3435  50.7212 15.33890795280142
MICROMAS-2A             
1 43131U 18004W   23025.80394566  .00116105  00000+0  16708-2 0  9995
2 43131  97.3511 112.5510 0005598 276.4784  83.5833 15.55636154280865
PICSAT                  
1 43132U 18004X   23025.75375748  .00036480  00000+0  90794-3 0  9996
2 43132  97.3497 106.7410 0006121 285.1993  74.8576 15.40160228280501
CNUSAIL-1               
1 43133U 18004Y   23025.48251661  .00022869  00000+0  69153-3 0  9995
2 43133  97.3448 102.9837 0006568 298.6465  61.4117 15.34200290280260
2018-004Z               
1 43134U 18004Z   23025.67112740  .00029764  00000+0  80278-3 0  9993
2 43134  97.3476 105.3214 0006069 292.7796  67.2808 15.37733573280412
FOX-1D (AO-92)          
1 43137U 18004AC  23025.71862807  .00026144  00000+0  75421-3 0  9990
2 43137  97.3455 104.3785 0006055 297.9033  62.1597 15.35661642280379
STEP CUBE LAB           
1 43138U 18004AD  23025.22651439  .00068285  00000+0  12557-2 0  9996
2 43138  97.3538 110.2557 0005386 284.0657  75.9995 15.48961260280669
XIAOXIANG-2             
1 43155U 18008A   23025.85792834  .00020785  00000+0  97676-3 0  9992
2 43155  97.3228  82.2319 0016162  89.0963 358.4376 15.19506289276992
ZHOU ENLAI              
1 43156U 18008B   23025.90938322  .00019293  00000+0  90867-3 0  9990
2 43156  97.3283  82.2500 0013543  87.9935  86.5643 15.19480426276925
QUANTUTONG 1            
1 43158U 18008D   23025.74198465  .00018157  00000+0  89839-3 0  9995
2 43158  97.3248  79.5466 0013092  91.1369  28.5840 15.17781986276776
S-NET D                 
1 43186U 18014G   23025.67806036  .00005343  00000+0  44503-3 0  9997
2 43186  97.6458 292.1008 0008110 266.9265  93.1030 14.99033367272193
S-NET B                 
1 43187U 18014H   23025.67856545  .00005342  00000+0  44499-3 0  9991
2 43187  97.6453 292.0418 0008003 267.3812  92.6495 14.99030463272190
S-NET A                 
1 43188U 18014J   23025.67885066  .00005358  00000+0  44630-3 0  9996
2 43188  97.6461 292.1190 0008031 267.4192  92.6112 14.99030937272193
